STARLINK-32295          
1 62147U 24224J   25314.79432709  .00037382  00000+0  13590-2 0  9992
2 62147  43.0016 109.8079 0002655 283.4796  76.5760 15.27629104 54183
STARLINK-32479          
1 62148U 24224K   25314.44684722  .00052237  00000+0  18927-2 0  9994
2 62148  43.0026 111.5010 0001856 274.4389  85.6250 15.27607999 54183
STARLINK-32468          
1 62149U 24224L   25314.83787007  .00046903  00000+0  17009-2 0  9991
2 62149  43.0010 109.2727 0002498 288.0135  72.0444 15.27621498 54140
STARLINK-32629          
1 62150U 24224M   25314.74550221  .00042143  00000+0  15303-2 0  9996
2 62150  43.0063 109.4451 0002917 275.1180  84.9339 15.27618606 54297
STARLINK-32644          
1 62151U 24224N   25314.79304781  .00040907  00000+0  14866-2 0  9999
2 62151  43.0042 109.7974 0002146 272.6838  87.3768 15.27606702 54291
STARLINK-32623          
1 62152U 24224P   25314.50274958  .00049628  00000+0  17990-2 0  9991
2 62152  43.0036 114.5221 0001742 264.2489  95.8164 15.27613057 54154
STARLINK-32639          
1 62153U 24224Q   25314.79047845  .00036967  00000+0  13452-2 0  9997
2 62153  43.0029 109.7786 0001800 272.5481  87.5165 15.27603752 54136
STARLINK-32625          
1 62154U 24224R   25314.73279919  .00031373  00000+0  11435-2 0  9996
2 62154  42.9971 110.2016 0000553 250.7397 109.3394 15.27614433 54171
STARLINK-32635          
1 62155U 24224S   25314.76012934  .00089001  00000+0  32017-2 0  9992
2 62155  42.9983 117.3327 0001225 263.6750  96.3962 15.27613579 54043
STARLINK-32532          
1 62156U 24224T   25314.50323418  .00034055  00000+0  12405-2 0  9995
2 62156  43.0005 111.0550 0001282 234.9029 125.1703 15.27601912 54090
STARLINK-32503          
1 62157U 24224U   25314.87931146  .00009586  00000+0  35770-3 0  9991
2 62157  42.9979 116.5046 0001362 260.8216  99.2482 15.27551312 53793
STARLINK-32508          
1 62158U 24224V   25314.51481457  .00023748  00000+0  86896-3 0  9999
2 62158  43.0024 111.1469 0001633 259.5972 100.4696 15.27609013 54258
STARLINK-32524          
1 62159U 24224W   25314.84123649  .00039430  00000+0  14328-2 0  9997
2 62159  43.0042 112.7592 0002598 270.8499  89.2055 15.27622281 54103
STARLINK-32484          
1 62160U 24224X   25314.73150712  .00031148  00000+0  11373-2 0  9993
2 62160  43.0010 110.1922 0001443 278.0709  81.9979 15.27562173 54287
STARLINK-32497          
1 62161U 24224Y   25314.50660252  .00030945  00000+0  11286-2 0  9991
2 62161  43.0023 114.5477 0001571 266.5486  93.5186 15.27601039 54207
STARLINK-32526          
1 62162U 24224Z   25314.83738651  .00033228  00000+0  12103-2 0  9993
2 62162  43.0038 112.7326 0002122 283.6957  76.3658 15.27614392 54257
