[{"OBJECT_NAME":"STARLINK-32295","OBJECT_ID":"2024-224J","EPOCH":"2025-11-10T19:03:49.860576","MEAN_MOTION":15.27629104,"ECCENTRICITY":0.00026555,"INCLINATION":43.0016,"RA_OF_ASC_NODE":109.8079,"ARG_OF_PERICENTER":283.4796,"MEAN_ANOMALY":76.576,"EPHEMERIS_TYPE":0,"CLASSIFICATION_TYPE":"U","NORAD_CAT_ID":62147,"ELEMENT_SET_NO":999,"REV_AT_EPOCH":5418,"BSTAR":0.001358984,"MEAN_MOTION_DOT":0.00037382,"MEAN_MOTION_DDOT":0},{"OBJECT_NAME":"STARLINK-32479","OBJECT_ID":"2024-224K","EPOCH":"2025-11-10T10:43:27.599808","MEAN_MOTION":15.27607999,"ECCENTRICITY":0.00018563,"INCLINATION":43.0026,"RA_OF_ASC_NODE":111.501,"ARG_OF_PERICENTER":274.4389,"MEAN_ANOMALY":85.625,"EPHEMERIS_TYPE":0,"CLASSIFICATION_TYPE":"U","NORAD_CAT_ID":62148,"ELEMENT_SET_NO":999,"REV_AT_EPOCH":5418,"BSTAR":0.0018927486,"MEAN_MOTION_DOT":0.00052237,"MEAN_MOTION_DDOT":0},{"OBJECT_NAME":"STARLINK-32468","OBJECT_ID":"2024-224L","EPOCH":"2025-11-10T20:06:31.974048","MEAN_MOTION":15.27621498,"ECCENTRICITY":0.00024985,"INCLINATION":43.001,"RA_OF_ASC_NODE":109.2727,"ARG_OF_PERICENTER":288.0135,"MEAN_ANOMALY":72.0444,"EPHEMERIS_TYPE":0,"CLASSIFICATION_TYPE":"U","NORAD_CAT_ID":62149,"ELEMENT_SET_NO":999,"REV_AT_EPOCH":5414,"BSTAR":0.0017009009,"MEAN_MOTION_DOT":0.00046903,"MEAN_MOTION_DDOT":0},{"OBJECT_NAME":"STARLINK-32629","OBJECT_ID":"2024-224M","EPOCH":"2025-11-10T17:53:31.390944","MEAN_MOTION":15.27618606,"ECCENTRICITY":0.00029173,"INCLINATION":43.0063,"RA_OF_ASC_NODE":109.4451,"ARG_OF_PERICENTER":275.118,"MEAN_ANOMALY":84.9339,"EPHEMERIS_TYPE":0,"CLASSIFICATION_TYPE":"U","NORAD_CAT_ID":62150,"ELEMENT_SET_NO":999,"REV_AT_EPOCH":5429,"BSTAR":0.0015303388,"MEAN_MOTION_DOT":0.00042143,"MEAN_MOTION_DDOT":0},{"OBJECT_NAME":"STARLINK-32644","OBJECT_ID":"2024-224N","EPOCH":"2025-11-10T19:01:59.330784","MEAN_MOTION":15.27606702,"ECCENTRICITY":0.00021467,"INCLINATION":43.0042,"RA_OF_ASC_NODE":109.7974,"ARG_OF_PERICENTER":272.6838,"MEAN_ANOMALY":87.3768,"EPHEMERIS_TYPE":0,"CLASSIFICATION_TYPE":"U","NORAD_CAT_ID":62151,"ELEMENT_SET_NO":999,"REV_AT_EPOCH":5429,"BSTAR":0.0014865759,"MEAN_MOTION_DOT":0.00040907,"MEAN_MOTION_DDOT":0},{"OBJECT_NAME":"STARLINK-32623","OBJECT_ID":"2024-224P","EPOCH":"2025-11-10T12:03:57.563712","MEAN_MOTION":15.27613057,"ECCENTRICITY":0.0001742,"INCLINATION":43.0036,"RA_OF_ASC_NODE":114.5221,"ARG_OF_PERICENTER":264.2489,"MEAN_ANOMALY":95.8164,"EPHEMERIS_TYPE":0,"CLASSIFICATION_TYPE":"U","NORAD_CAT_ID":62152,"ELEMENT_SET_NO":999,"REV_AT_EPOCH":5415,"BSTAR":0.0017990441,"MEAN_MOTION_DOT":0.00049628,"MEAN_MOTION_DDOT":0},{"OBJECT_NAME":"STARLINK-32639","OBJECT_ID":"2024-224Q","EPOCH":"2025-11-10T18:58:17.338080","MEAN_MOTION":15.27603752,"ECCENTRICITY":0.00018005,"INCLINATION":43.0029,"RA_OF_ASC_NODE":109.7786,"ARG_OF_PERICENTER":272.5481,"MEAN_ANOMALY":87.5165,"EPHEMERIS_TYPE":0,"CLASSIFICATION_TYPE":"U","NORAD_CAT_ID":62153,"ELEMENT_SET_NO":999,"REV_AT_EPOCH":5413,"BSTAR":0.0013451575,"MEAN_MOTION_DOT":0.00036967,"MEAN_MOTION_DDOT":0},{"OBJECT_NAME":"STARLINK-32625","OBJECT_ID":"2024-224R","EPOCH":"2025-11-10T17:35:13.850016","MEAN_MOTION":15.27614433,"ECCENTRICITY":5.534e-5,"INCLINATION":42.9971,"RA_OF_ASC_NODE":110.2016,"ARG_OF_PERICENTER":250.7397,"MEAN_ANOMALY":109.3394,"EPHEMERIS_TYPE":0,"CLASSIFICATION_TYPE":"U","NORAD_CAT_ID":62154,"ELEMENT_SET_NO":999,"REV_AT_EPOCH":5417,"BSTAR":0.0011435476,"MEAN_MOTION_DOT":0.00031373,"MEAN_MOTION_DDOT":0},{"OBJECT_NAME":"STARLINK-32635","OBJECT_ID":"2024-224S","EPOCH":"2025-11-10T18:14:35.174976","MEAN_MOTION":15.27613579,"ECCENTRICITY":0.00012251,"INCLINATION":42.9983,"RA_OF_ASC_NODE":117.3327,"ARG_OF_PERICENTER":263.675,"MEAN_ANOMALY":96.3962,"EPHEMERIS_TYPE":0,"CLASSIFICATION_TYPE":"U","NORAD_CAT_ID":62155,"ELEMENT_SET_NO":999,"REV_AT_EPOCH":5404,"BSTAR":0.003201682,"MEAN_MOTION_DOT":0.00089001,"MEAN_MOTION_DDOT":0},{"OBJECT_NAME":"STARLINK-32532","OBJECT_ID":"2024-224T","EPOCH":"2025-11-10T12:04:39.433152","MEAN_MOTION":15.27601912,"ECCENTRICITY":0.00012824,"INCLINATION":43.0005,"RA_OF_ASC_NODE":111.055,"ARG_OF_PERICENTER":234.9029,"MEAN_ANOMALY":125.1703,"EPHEMERIS_TYPE":0,"CLASSIFICATION_TYPE":"U","NORAD_CAT_ID":62156,"ELEMENT_SET_NO":999,"REV_AT_EPOCH":5409,"BSTAR":0.0012405414,"MEAN_MOTION_DOT":0.00034055,"MEAN_MOTION_DDOT":0},{"OBJECT_NAME":"STARLINK-32503","OBJECT_ID":"2024-224U","EPOCH":"2025-11-10T21:06:12.510144","MEAN_MOTION":15.27551312,"ECCENTRICITY":0.0001362,"INCLINATION":42.9979,"RA_OF_ASC_NODE":116.5046,"ARG_OF_PERICENTER":260.8216,"MEAN_ANOMALY":99.2482,"EPHEMERIS_TYPE":0,"CLASSIFICATION_TYPE":"U","NORAD_CAT_ID":62157,"ELEMENT_SET_NO":999,"REV_AT_EPOCH":5379,"BSTAR":0.00035770475,"MEAN_MOTION_DOT":9.586e-5,"MEAN_MOTION_DDOT":0},{"OBJECT_NAME":"STARLINK-32508","OBJECT_ID":"2024-224V","EPOCH":"2025-11-10T12:21:19.978848","MEAN_MOTION":15.27609013,"ECCENTRICITY":0.0001633,"INCLINATION":43.0024,"RA_OF_ASC_NODE":111.1469,"ARG_OF_PERICENTER":259.5972,"MEAN_ANOMALY":100.4696,"EPHEMERIS_TYPE":0,"CLASSIFICATION_TYPE":"U","NORAD_CAT_ID":62158,"ELEMENT_SET_NO":999,"REV_AT_EPOCH":5425,"BSTAR":0.00086896017,"MEAN_MOTION_DOT":0.00023748,"MEAN_MOTION_DDOT":0},{"OBJECT_NAME":"STARLINK-32524","OBJECT_ID":"2024-224W","EPOCH":"2025-11-10T20:11:22.832736","MEAN_MOTION":15.27622281,"ECCENTRICITY":0.00025985,"INCLINATION":43.0042,"RA_OF_ASC_NODE":112.7592,"ARG_OF_PERICENTER":270.8499,"MEAN_ANOMALY":89.2055,"EPHEMERIS_TYPE":0,"CLASSIFICATION_TYPE":"U","NORAD_CAT_ID":62159,"ELEMENT_SET_NO":999,"REV_AT_EPOCH":5410,"BSTAR":0.001432823,"MEAN_MOTION_DOT":0.0003943,"MEAN_MOTION_DDOT":0},{"OBJECT_NAME":"STARLINK-32484","OBJECT_ID":"2024-224X","EPOCH":"2025-11-10T17:33:22.215168","MEAN_MOTION":15.27562173,"ECCENTRICITY":0.00014436,"INCLINATION":43.001,"RA_OF_ASC_NODE":110.1922,"ARG_OF_PERICENTER":278.0709,"MEAN_ANOMALY":81.9979,"EPHEMERIS_TYPE":0,"CLASSIFICATION_TYPE":"U","NORAD_CAT_ID":62160,"ELEMENT_SET_NO":999,"REV_AT_EPOCH":5428,"BSTAR":0.00113726,"MEAN_MOTION_DOT":0.00031148,"MEAN_MOTION_DDOT":0},{"OBJECT_NAME":"STARLINK-32497","OBJECT_ID":"2024-224Y","EPOCH":"2025-11-10T12:09:30.457728","MEAN_MOTION":15.27601039,"ECCENTRICITY":0.00015717,"INCLINATION":43.0023,"RA_OF_ASC_NODE":114.5477,"ARG_OF_PERICENTER":266.5486,"MEAN_ANOMALY":93.5186,"EPHEMERIS_TYPE":0,"CLASSIFICATION_TYPE":"U","NORAD_CAT_ID":62161,"ELEMENT_SET_NO":999,"REV_AT_EPOCH":5420,"BSTAR":0.0011286008,"MEAN_MOTION_DOT":0.00030945,"MEAN_MOTION_DDOT":0},{"OBJECT_NAME":"STARLINK-32526","OBJECT_ID":"2024-224Z","EPOCH":"2025-11-10T20:05:50.194464","MEAN_MOTION":15.27614392,"ECCENTRICITY":0.00021228,"INCLINATION":43.0038,"RA_OF_ASC_NODE":112.7326,"ARG_OF_PERICENTER":283.6957,"MEAN_ANOMALY":76.3658,"EPHEMERIS_TYPE":0,"CLASSIFICATION_TYPE":"U","NORAD_CAT_ID":62162,"ELEMENT_SET_NO":999,"REV_AT_EPOCH":5425,"BSTAR":0.0012102665,"MEAN_MOTION_DOT":0.00033228,"MEAN_MOTION_DDOT":0}]
